{
  "type": "FeatureCollection",
  "features": [
    {
      "type": "Feature",
      "properties": {
        "norad_id": 33822,
        "name": "COSMOS 2251 DEB",
        "group": "cosmos-2251-debris",
        "lat": 71.61878001181626,
        "lon": -100.80874805232806,
        "alt_km": 949.5281270878786,
        "timestamp": "2025-12-09T04:51:47.884133+00:00",
        "meta_object_name": "COSMOS 2251 DEB",
        "meta_object_id": "1993-036BP",
        "meta_epoch": "2025-12-08T16:56:57.767424",
        "meta_mean_motion": 14.1304189,
        "meta_eccentricity": 0.0153645,
        "meta_inclination": 74.0693,
        "meta_ra_of_asc_node": 200.8024,
        "meta_arg_of_pericenter": 248.0767,
        "meta_mean_anomaly": 188.8488,
        "meta_ephemeris_type": 0,
        "meta_classification_type": "U",
        "meta_norad_cat_id": 33822,
        "meta_element_set_no": 999,
        "meta_rev_at_epoch": 85997,
        "meta_bstar": 0.0019867,
        "meta_mean_motion_dot": 4.124e-05,
        "meta_mean_motion_ddot": 0,
        "tle_line1": "1 33822U 93036BP  25342.70622416  .00004124  00000+0  19867-2 0  9996",
        "tle_line2": "2 33822  74.0693 200.8024 0153645 248.0767 188.8488 14.13041890859977"
      },
      "geometry": {
        "type": "Point",
        "coordinates": [
          -100.80874805232806,
          71.61878001181626
        ]
      }
    },
    {
      "type": "Feature",
      "properties": {
        "norad_id": 33823,
        "name": "COSMOS 2251 DEB",
        "group": "cosmos-2251-debris",
        "lat": 72.5468193024019,
        "lon": -136.94048667019962,
        "alt_km": 1034.8115067524495,
        "timestamp": "2025-12-09T04:51:47.884143+00:00",
        "meta_object_name": "COSMOS 2251 DEB",
        "meta_object_id": "1993-036BQ",
        "meta_epoch": "2025-12-08T18:14:52.886112",
        "meta_mean_motion": 13.98936531,
        "meta_eccentricity": 0.0209295,
        "meta_inclination": 73.8094,
        "meta_ra_of_asc_node": 156.3048,
        "meta_arg_of_pericenter": 282.1124,
        "meta_mean_anomaly": 93.9058,
        "meta_ephemeris_type": 0,
        "meta_classification_type": "U",
        "meta_norad_cat_id": 33823,
        "meta_element_set_no": 999,
        "meta_rev_at_epoch": 85554,
        "meta_bstar": 0.0013491,
        "meta_mean_motion_dot": 2.323e-05,
        "meta_mean_motion_ddot": 0,
        "tle_line1": "1 33823U 93036BQ  25342.76033433  .00002323  00000+0  13491-2 0  9994",
        "tle_line2": "2 33823  73.8094 156.3048 0209295 282.1124  93.9058 13.98936531855545"
      },
      "geometry": {
        "type": "Point",
        "coordinates": [
          -136.94048667019962,
          72.5468193024019
        ]
      }
    },
    {
      "type": "Feature",
      "properties": {
        "norad_id": 33825,
        "name": "COSMOS 2251 DEB",
        "group": "cosmos-2251-debris",
        "lat": -73.61439298690543,
        "lon": -42.96196668005266,
        "alt_km": 667.5178859660928,
        "timestamp": "2025-12-09T04:51:47.884153+00:00",
        "meta_object_name": "COSMOS 2251 DEB",
        "meta_object_id": "1993-036BS",
        "meta_epoch": "2025-12-08T13:29:10.217184",
        "meta_mean_motion": 14.69708612,
        "meta_eccentricity": 0.008433,
        "meta_inclination": 73.9851,
        "meta_ra_of_asc_node": 35.9146,
        "meta_arg_of_pericenter": 3.9987,
        "meta_mean_anomaly": 121.8448,
        "meta_ephemeris_type": 0,
        "meta_classification_type": "U",
        "meta_norad_cat_id": 33825,
        "meta_element_set_no": 999,
        "meta_rev_at_epoch": 88818,
        "meta_bstar": 0.0011359,
        "meta_mean_motion_dot": 7.121e-05,
        "meta_mean_motion_ddot": 0,
        "tle_line1": "1 33825U 93036BS  25342.56192381  .00007121  00000+0  11359-2 0  9994",
        "tle_line2": "2 33825  73.9851  35.9146 0084330   3.9987 121.8448 14.69708612888183"
      },
      "geometry": {
        "type": "Point",
        "coordinates": [
          -42.96196668005266,
          -73.61439298690543
        ]
      }
    },
    {
      "type": "Feature",
      "properties": {
        "norad_id": 33826,
        "name": "COSMOS 2251 DEB",
        "group": "cosmos-2251-debris",
        "lat": 31.449225773931918,
        "lon": 66.58923938692807,
        "alt_km": 696.4527814985431,
        "timestamp": "2025-12-09T04:51:47.884164+00:00",
        "meta_object_name": "COSMOS 2251 DEB",
        "meta_object_id": "1993-036BT",
        "meta_epoch": "2025-12-08T16:01:24.642912",
        "meta_mean_motion": 14.51664644,
        "meta_eccentricity": 0.0083653,
        "meta_inclination": 74.065,
        "meta_ra_of_asc_node": 57.5314,
        "meta_arg_of_pericenter": 103.1899,
        "meta_mean_anomaly": 15.9338,
        "meta_ephemeris_type": 0,
        "meta_classification_type": "U",
        "meta_norad_cat_id": 33826,
        "meta_element_set_no": 999,
        "meta_rev_at_epoch": 87710,
        "meta_bstar": 0.0017127,
        "meta_mean_motion_dot": 7.169e-05,
        "meta_mean_motion_ddot": 0,
        "tle_line1": "1 33826U 93036BT  25342.66764633  .00007169  00000+0  17127-2 0  9992",
        "tle_line2": "2 33826  74.0650  57.5314 0083653 103.1899  15.9338 14.51664644877100"
      },
      "geometry": {
        "type": "Point",
        "coordinates": [
          66.58923938692807,
          31.449225773931918
        ]
      }
    },
    {
      "type": "Feature",
      "properties": {
        "norad_id": 33828,
        "name": "COSMOS 2251 DEB",
        "group": "cosmos-2251-debris",
        "lat": 23.40021935854681,
        "lon": -108.22188659213737,
        "alt_km": 735.0052972825033,
        "timestamp": "2025-12-09T04:51:47.884174+00:00",
        "meta_object_name": "COSMOS 2251 DEB",
        "meta_object_id": "1993-036BV",
        "meta_epoch": "2025-12-08T20:45:24.971040",
        "meta_mean_motion": 14.44315222,
        "meta_eccentricity": 0.0029416,
        "meta_inclination": 74.047,
        "meta_ra_of_asc_node": 245.2954,
        "meta_arg_of_pericenter": 318.7731,
        "meta_mean_anomaly": 109.9068,
        "meta_ephemeris_type": 0,
        "meta_classification_type": "U",
        "meta_norad_cat_id": 33828,
        "meta_element_set_no": 999,
        "meta_rev_at_epoch": 88257,
        "meta_bstar": 0.00093975,
        "meta_mean_motion_dot": 3.225e-05,
        "meta_mean_motion_ddot": 0,
        "tle_line1": "1 33828U 93036BV  25342.86487235  .00003225  00000+0  93975-3 0  9991",
        "tle_line2": "2 33828  74.0470 245.2954 0029416 318.7731 109.9068 14.44315222882572"
      },
      "geometry": {
        "type": "Point",
        "coordinates": [
          -108.22188659213737,
          23.40021935854681
        ]
      }
    },
    {
      "type": "Feature",
      "properties": {
        "norad_id": 33830,
        "name": "COSMOS 2251 DEB",
        "group": "cosmos-2251-debris",
        "lat": -24.05534235324239,
        "lon": 64.6439851841568,
        "alt_km": 670.9662500300756,
        "timestamp": "2025-12-09T04:51:47.884184+00:00",
        "meta_object_name": "COSMOS 2251 DEB",
        "meta_object_id": "1993-036BX",
        "meta_epoch": "2025-12-08T20:06:53.537760",
        "meta_mean_motion": 14.76822707,
        "meta_eccentricity": 0.0042271,
        "meta_inclination": 74.0322,
        "meta_ra_of_asc_node": 238.015,
        "meta_arg_of_pericenter": 358.8698,
        "meta_mean_anomaly": 69.1489,
        "meta_ephemeris_type": 0,
        "meta_classification_type": "U",
        "meta_norad_cat_id": 33830,
        "meta_element_set_no": 999,
        "meta_rev_at_epoch": 89414,
        "meta_bstar": 0.0013689,
        "meta_mean_motion_dot": 9.731e-05,
        "meta_mean_motion_ddot": 0,
        "tle_line1": "1 33830U 93036BX  25342.83811965  .00009731  00000+0  13689-2 0  9993",
        "tle_line2": "2 33830  74.0322 238.0150 0042271 358.8698  69.1489 14.76822707894146"
      },
      "geometry": {
        "type": "Point",
        "coordinates": [
          64.6439851841568,
          -24.05534235324239
        ]
      }
    },
    {
      "type": "Feature",
      "properties": {
        "norad_id": 33832,
        "name": "COSMOS 2251 DEB",
        "group": "cosmos-2251-debris",
        "lat": 70.11965090123114,
        "lon": -15.527314117684737,
        "alt_km": 699.0307407230466,
        "timestamp": "2025-12-09T04:51:47.884194+00:00",
        "meta_object_name": "COSMOS 2251 DEB",
        "meta_object_id": "1993-036BZ",
        "meta_epoch": "2025-12-08T17:08:59.329248",
        "meta_mean_motion": 14.60568716,
        "meta_eccentricity": 0.0025213,
        "meta_inclination": 74.0536,
        "meta_ra_of_asc_node": 217.6543,
        "meta_arg_of_pericenter": 249.6205,
        "meta_mean_anomaly": 167.3296,
        "meta_ephemeris_type": 0,
        "meta_classification_type": "U",
        "meta_norad_cat_id": 33832,
        "meta_element_set_no": 999,
        "meta_rev_at_epoch": 88366,
        "meta_bstar": 0.0017927,
        "meta_mean_motion_dot": 8.731e-05,
        "meta_mean_motion_ddot": 0,
        "tle_line1": "1 33832U 93036BZ  25342.71457557  .00008731  00000+0  17927-2 0  9993",
        "tle_line2": "2 33832  74.0536 217.6543 0025213 249.6205 167.3296 14.60568716883664"
      },
      "geometry": {
        "type": "Point",
        "coordinates": [
          -15.527314117684737,
          70.11965090123114
        ]
      }
    }
  ]
}